{"type": "FeatureCollection", "features": [ {"type": "Feature", "properties": {"norad_id": 36402, "name": "COSMOS 2460 (732)", "group": "gnss", "lat": -36.914354187918484, "lon": 160.62223579568402, "alt_km": 19130.316294266264, "timestamp": "2025-12-16T21:38:57.416667+00:00", "meta": {"OBJECT_NAME": "COSMOS 2460 (732)", "OBJECT_ID": "2010-007C", "EPOCH": "2025-12-15T05:47:00.728160", "MEAN_MOTION": 2.13106127, "ECCENTRICITY": 0.00026664, "INCLINATION": 65.5278, "RA_OF_ASC_NODE": 320.6882, "ARG_OF_PERICENTER": 275.3459, "MEAN_ANOMALY": 111.58, "EPHEMERIS_TYPE": 0, "CLASSIFICATION_TYPE": "U", "NORAD_CAT_ID": 36402, "ELEMENT_SET_NO": 999, "REV_AT_EPOCH": 12281, "BSTAR": 0, "MEAN_MOTION_DOT": -6.7e-07, "MEAN_MOTION_DDOT": 0}, "tle": {"line1": "1 36402U 10007C   25349.24098065 -.00000067  00000+0  00000+0 0  9992", "line2": "2 36402  65.5278 320.6882 0002666 275.3459 111.5800  2.13106127122817"}}, "geometry": {"type": "Point", "coordinates": [160.62223579568402, -36.914354187918484]}}, {"type": "Feature", "properties": {"norad_id": 36585, "name": "GPS BIIF-1  (PRN 25)", "group": "gnss", "lat": -39.93077224565579, "lon": 178.93400290244492, "alt_km": 20338.384888984187, "timestamp": "2025-12-16T21:38:57.416678+00:00", "meta": {"OBJECT_NAME": "GPS BIIF-1  (PRN 25)", "OBJECT_ID": "2010-022A", "EPOCH": "2025-12-16T01:01:22.883808", "MEAN_MOTION": 2.00553454, "ECCENTRICITY": 0.01262565, "INCLINATION": 54.2996, "RA_OF_ASC_NODE": 215.9407, "ARG_OF_PERICENTER": 65.1133, "MEAN_ANOMALY": 343.5127, "EPHEMERIS_TYPE": 0, "CLASSIFICATION_TYPE": "U", "NORAD_CAT_ID": 36585, "ELEMENT_SET_NO": 999, "REV_AT_EPOCH": 11392, "BSTAR": 0, "MEAN_MOTION_DOT": 7.2e-07, "MEAN_MOTION_DDOT": 0}, "tle": {"line1": "1 36585U 10022A   25350.04262597  .00000072  00000+0  00000+0 0  9999", "line2": "2 36585  54.2996 215.9407 0126256  65.1133 343.5127  2.00553454113922"}}, "geometry": {"type": "Point", "coordinates": [178.93400290244492, -39.93077224565579]}}, {"type": "Feature", "properties": {"norad_id": 36828, "name": "BEIDOU-2 IGSO-1 (C06)", "group": "gnss", "lat": -4.687541763120002, "lon": 161.21255155041368, "alt_km": 35947.15912447592, "timestamp": "2025-12-16T21:38:57.416690+00:00", "meta": {"OBJECT_NAME": "BEIDOU-2 IGSO-1 (C06)", "OBJECT_ID": "2010-036A", "EPOCH": "2025-12-14T21:38:21.623424", "MEAN_MOTION": 1.00275796, "ECCENTRICITY": 0.00512569, "INCLINATION": 54.2866, "RA_OF_ASC_NODE": 164.6279, "ARG_OF_PERICENTER": 215.8888, "MEAN_ANOMALY": 135.7931, "EPHEMERIS_TYPE": 0, "CLASSIFICATION_TYPE": "U", "NORAD_CAT_ID": 36828, "ELEMENT_SET_NO": 999, "REV_AT_EPOCH": 5624, "BSTAR": 0, "MEAN_MOTION_DOT": -2.4e-07, "MEAN_MOTION_DDOT": 0}, "tle": {"line1": "1 36828U 10036A   25348.90163916 -.00000024  00000+0  00000+0 0  9999", "line2": "2 36828  54.2866 164.6279 0051256 215.8888 135.7931  1.00275796 56247"}}, "geometry": {"type": "Point", "coordinates": [161.21255155041368, -4.687541763120002]}}, {"type": "Feature", "properties": {"norad_id": 37210, "name": "BEIDOU-2 G4 (C04)", "group": "gnss", "lat": 2.010913254354895, "lon": -149.45498259768866, "alt_km": 35757.844323478195, "timestamp": "2025-12-16T21:38:57.416703+00:00", "meta": {"OBJECT_NAME": "BEIDOU-2 G4 (C04)", "OBJECT_ID": "2010-057A", "EPOCH": "2025-12-16T07:16:12.833184", "MEAN_MOTION": 1.00271918, "ECCENTRICITY": 0.00105707, "INCLINATION": 3.1934, "RA_OF_ASC_NODE": 69.9263, "ARG_OF_PERICENTER": 192.0212, "MEAN_ANOMALY": 92.3789, "EPHEMERIS_TYPE": 0, "CLASSIFICATION_TYPE": "U", "NORAD_CAT_ID": 37210, "ELEMENT_SET_NO": 999, "REV_AT_EPOCH": 5545, "BSTAR": 0, "MEAN_MOTION_DOT": -9e-07, "MEAN_MOTION_DDOT": 0}, "tle": {"line1": "1 37210U 10057A   25350.30292631 -.00000090  00000+0  00000+0 0  9995", "line2": "2 37210   3.1934  69.9263 0010570 192.0212  92.3789  1.00271918 55456"}}, "geometry": {"type": "Point", "coordinates": [-149.45498259768866, 2.010913254354895]}}, {"type": "Feature", "properties": {"norad_id": 37256, "name": "BEIDOU-2 IGSO-2 (C07)", "group": "gnss", "lat": -42.055021535994264, "lon": 148.61087460632717, "alt_km": 35606.86834690204, "timestamp": "2025-12-16T21:38:57.416715+00:00", "meta": {"OBJECT_NAME": "BEIDOU-2 IGSO-2 (C07)", "OBJECT_ID": "2010-068A", "EPOCH": "2025-12-15T17:44:21.809184", "MEAN_MOTION": 1.00285693, "ECCENTRICITY": 0.00486119, "INCLINATION": 47.8802, "RA_OF_ASC_NODE": 274.1114, "ARG_OF_PERICENTER": 216.5623, "MEAN_ANOMALY": 327.802, "EPHEMERIS_TYPE": 0, "CLASSIFICATION_TYPE": "U", "NORAD_CAT_ID": 37256, "ELEMENT_SET_NO": 999, "REV_AT_EPOCH": 5495, "BSTAR": 0, "MEAN_MOTION_DOT": -2.2e-06, "MEAN_MOTION_DDOT": 0}, "tle": {"line1": "1 37256U 10068A   25349.73914131 -.00000220  00000+0  00000+0 0  9993", "line2": "2 37256  47.8802 274.1114 0048611 216.5623 327.8020  1.00285693 54958"}}, "geometry": {"type": "Point", "coordinates": [148.61087460632717, -42.055021535994264]}}, {"type": "Feature", "properties": {"norad_id": 37384, "name": "BEIDOU-2 IGSO-3 (C08)", "group": "gnss", "lat": 52.85241732109549, "lon": 177.73610641749988, "alt_km": 35735.082707400325, "timestamp": "2025-12-16T21:38:57.416727+00:00", "meta": {"OBJECT_NAME": "BEIDOU-2 IGSO-3 (C08)", "OBJECT_ID": "2011-013A", "EPOCH": "2025-12-15T15:08:39.193152", "MEAN_MOTION": 1.00270237, "ECCENTRICITY": 0.00354064, "INCLINATION": 62.1477, "RA_OF_ASC_NODE": 41.8879, "ARG_OF_PERICENTER": 187.6383, "MEAN_ANOMALY": 189.6615, "EPHEMERIS_TYPE": 0, "CLASSIFICATION_TYPE": "U", "NORAD_CAT_ID": 37384, "ELEMENT_SET_NO": 999, "REV_AT_EPOCH": 5382, "BSTAR": 0, "MEAN_MOTION_DOT": -1.9e-06, "MEAN_MOTION_DDOT": 0}, "tle": {"line1": "1 37384U 11013A   25349.63100918 -.00000190  00000+0  00000+0 0  9991", "line2": "2 37384  62.1477  41.8879 0035406 187.6383 189.6615  1.00270237 53821"}}, "geometry": {"type": "Point", "coordinates": [177.73610641749988, 52.85241732109549]}}, {"type": "Feature", "properties": {"norad_id": 37605, "name": "GSAT-8 (GAGAN/PRN 127)", "group": "gnss", "lat": 0.627820229181558, "lon": 105.5669602763606, "alt_km": 35820.38617813919, "timestamp": "2025-12-16T21:38:57.416739+00:00", "meta": {"OBJECT_NAME": "GSAT-8 (GAGAN/PRN 127)", "OBJECT_ID": "2011-022A", "EPOCH": "2025-12-16T05:03:33.039648", "MEAN_MOTION": 1.00273201, "ECCENTRICITY": 0.00086044, "INCLINATION": 1.6586, "RA_OF_ASC_NODE": 84.159, "ARG_OF_PERICENTER": 184.4406, "MEAN_ANOMALY": 307.4778, "EPHEMERIS_TYPE": 0, "CLASSIFICATION_TYPE": "U", "NORAD_CAT_ID": 37605, "ELEMENT_SET_NO": 999, "REV_AT_EPOCH": 5138, "BSTAR": 0, "MEAN_MOTION_DOT": 1.06e-06, "MEAN_MOTION_DDOT": 0}, "tle": {"line1": "1 37605U 11022A   25350.21079907  .00000106  00000+0  00000+0 0  9992", "line2": "2 37605   1.6586  84.1590 0008604 184.4406 307.4778  1.00273201 51380"}}, "geometry": {"type": "Point", "coordinates": [105.5669602763606, 0.627820229181558]}}, {"type": "Feature", "properties": {"norad_id": 37763, "name": "BEIDOU-2 IGSO-4 (C09)", "group": "gnss", "lat": -16.69270109066586, "lon": 154.9604747730167, "alt_km": 35983.40325178014, "timestamp": "2025-12-16T21:38:57.416752+00:00", "meta": {"OBJECT_NAME": "BEIDOU-2 IGSO-4 (C09)", "OBJECT_ID": "2011-038A", "EPOCH": "2025-12-15T07:50:06.120672", "MEAN_MOTION": 1.00281785, "ECCENTRICITY": 0.01493054, "INCLINATION": 54.5835, "RA_OF_ASC_NODE": 167.3229, "ARG_OF_PERICENTER": 230.222, "MEAN_ANOMALY": 258.6911, "EPHEMERIS_TYPE": 0, "CLASSIFICATION_TYPE": "U", "NORAD_CAT_ID": 37763, "ELEMENT_SET_NO": 999, "REV_AT_EPOCH": 5280, "BSTAR": 0, "MEAN_MOTION_DOT": 6.8e-07, "MEAN_MOTION_DDOT": 0}, "tle": {"line1": "1 37763U 11038A   25349.32645973  .00000068  00000+0  00000+0 0  9993", "line2": "2 37763  54.5835 167.3229 0149305 230.2220 258.6911  1.00281785 52800"}}, "geometry": {"type": "Point", "coordinates": [154.9604747730167, -16.69270109066586]}}, {"type": "Feature", "properties": {"norad_id": 37846, "name": "GSAT0101 (GALILEO-PFM)", "group": "gnss", "lat": -49.177572120408755, "lon": -61.96230539345579, "alt_km": 23219.016033972508, "timestamp": "2025-12-16T21:38:57.416783+00:00", "meta": {"OBJECT_NAME": "GSAT0101 (GALILEO-PFM)", "OBJECT_ID": "2011-060A", "EPOCH": "2025-12-15T20:00:41.819904", "MEAN_MOTION": 1.70475823, "ECCENTRICITY": 0.00030775, "INCLINATION": 57.052, "RA_OF_ASC_NODE": 346.7358, "ARG_OF_PERICENTER": 316.7426, "MEAN_ANOMALY": 43.2514, "EPHEMERIS_TYPE": 0, "CLASSIFICATION_TYPE": "U", "NORAD_CAT_ID": 37846, "ELEMENT_SET_NO": 999, "REV_AT_EPOCH": 8799, "BSTAR": 0, "MEAN_MOTION_DOT": -8.2e-07, "MEAN_MOTION_DDOT": 0}, "tle": {"line1": "1 37846U 11060A   25349.83381736 -.00000082  00000+0  00000+0 0  9997", "line2": "2 37846  57.0520 346.7358 0003077 316.7426  43.2514  1.70475823 87990"}}, "geometry": {"type": "Point", "coordinates": [-61.96230539345579, -49.177572120408755]}}, {"type": "Feature", "properties": {"norad_id": 37847, "name": "GSAT0102 (GALILEO-FM2)", "group": "gnss", "lat": -15.787792260598389, "lon": -23.863026235783273, "alt_km": 23211.298996490357, "timestamp": "2025-12-16T21:38:57.416798+00:00", "meta": {"OBJECT_NAME": "GSAT0102 (GALILEO-FM2)", "OBJECT_ID": "2011-060B", "EPOCH": "2025-12-16T01:10:38.655264", "MEAN_MOTION": 1.7047605, "ECCENTRICITY": 0.00050527, "INCLINATION": 57.0527, "RA_OF_ASC_NODE": 346.7304, "ARG_OF_PERICENTER": 311.0932, "MEAN_ANOMALY": 226.4679, "EPHEMERIS_TYPE": 0, "CLASSIFICATION_TYPE": "U", "NORAD_CAT_ID": 37847, "ELEMENT_SET_NO": 999, "REV_AT_EPOCH": 8800, "BSTAR": 0, "MEAN_MOTION_DOT": -8.2e-07, "MEAN_MOTION_DDOT": 0}, "tle": {"line1": "1 37847U 11060B   25350.04905851 -.00000082  00000+0  00000+0 0  9993", "line2": "2 37847  57.0527 346.7304 0005052 311.0932 226.4679  1.70476050 88007"}}, "geometry": {"type": "Point", "coordinates": [-23.863026235783273, -15.787792260598389]}}]}